[
    {
        "CCSDS_OMM_VERS": "3.0",
        "COMMENT": "GENERATED VIA SPACE-TRACK.ORG API",
        "CREATION_DATE": "2025-04-14T03:05:54",
        "ORIGINATOR": "18 SPCS",
        "OBJECT_NAME": "GALILEO 23 (2C9)",
        "OBJECT_ID": "2018-060C",
        "CENTER_NAME": "EARTH",
        "REF_FRAME": "TEME",
        "TIME_SYSTEM": "UTC",
        "MEAN_ELEMENT_THEORY": "SGP4",
        "EPOCH": "2025-04-13T12:55:46.626240",
        "MEAN_MOTION": "1.70475693",
        "ECCENTRICITY": "0.00039500",
        "INCLINATION": "57.2814",
        "RA_OF_ASC_NODE": "353.3802",
        "ARG_OF_PERICENTER": "323.9976",
        "MEAN_ANOMALY": "36.0231",
        "EPHEMERIS_TYPE": "0",
        "CLASSIFICATION_TYPE": "U",
        "NORAD_CAT_ID": "43566",
        "ELEMENT_SET_NO": "999",
        "REV_AT_EPOCH": "4186",
        "BSTAR": "0.00000000000000",
        "MEAN_MOTION_DOT": "-0.00000091",
        "MEAN_MOTION_DDOT": "0.0000000000000",
        "SEMIMAJOR_AXIS": "29600.124",
        "PERIOD": "844.695",
        "APOAPSIS": "23233.681",
        "PERIAPSIS": "23210.297",
        "OBJECT_TYPE": "PAYLOAD",
        "RCS_SIZE": "LARGE",
        "COUNTRY_CODE": "ESA",
        "LAUNCH_DATE": "2018-07-25",
        "SITE": "FRGUI",
        "DECAY_DATE": null,
        "FILE": "4701263",
        "GP_ID": "285538978",
        "TLE_LINE0": "0 GALILEO 23 (2C9)",
        "TLE_LINE1": "1 43566U 18060C   25103.53873410 -.00000091  00000-0  00000-0 0  9992",
        "TLE_LINE2": "2 43566  57.2814 353.3802 0003950 323.9976  36.0231  1.70475693 41869"
    }
]